NORAD_CAT_ID,OBJECT_NAME,OBJECT_TYPE,EPOCH,MEAN_MOTION,ECCENTRICITY,INCLINATION,RA_OF_ASC_NODE,ARG_OF_PERICENTER,MEAN_ANOMALY,BSTAR,MEAN_MOTION_DOT,MEAN_MOTION_DDOT,TLE_LINE0,TLE_LINE1,TLE_LINE2,SEMIMAJOR_AXIS,PERIOD,APOGEE,PERIGEE,DECAYED
53170.0,STARLINK-4095,PAYLOAD,2023-08-05 00:31:10,15.08849253,0.0001261,53.2172,93.3174,108.8823,251.2306,6.6095e-05,7.64e-06,0.0,0 STARLINK-4095,1 53170U 22083AQ  23217.02165105  .00000764  00000-0  66095-4 0  9993,2 53170  53.2172  93.3174 0001261 108.8823 251.2306 15.08849253 58990,6917.852,95.437,540.589,538.845,0.0
53170.0,STARLINK-4095,PAYLOAD,2023-08-06 01:57:20,15.08854681,0.0001205,53.2177,88.5592,76.7897,283.323,0.00026672,3.961e-05,0.0,0 STARLINK-4095,1 53170U 22083AQ  23218.08148316  .00003961  00000-0  26672-3 0  9993,2 53170  53.2177  88.5592 0001205  76.7897 283.3230 15.08854681 59159,6917.836,95.437,540.534,538.867,0.0
53170.0,STARLINK-4095,PAYLOAD,2023-08-06 08:18:53,15.08833411,0.0001833,53.2167,87.3709,74.0039,286.1155,-7.6134e-05,-1.499e-05,0.0,0 STARLINK-4095,1 53170U 22083AQ  23218.34645796 -.00001499  00000-0 -76134-4 0  9991,2 53170  53.2167  87.3709 0001833  74.0039 286.1155 15.08833411 59190,6917.901,95.438,541.034,538.497,0.0
53170.0,STARLINK-4095,PAYLOAD,2023-08-06 22:37:23,15.08822783,0.0001134,53.2169,84.6961,73.4509,286.6607,-0.00015855,-2.809e-05,0.0,0 STARLINK-4095,1 53170U 22083AQ  23218.94263866 -.00002809  00000-0 -15855-3 0  9999,2 53170  53.2169  84.6961 0001134  73.4509 286.6607 15.08822783 59288,6917.933,95.439,540.583,539.014,0.0
53170.0,STARLINK-4095,PAYLOAD,2023-08-07 08:09:42,15.08829796,0.0001305,53.2184,82.9113,72.5125,287.601,-7.1228e-05,-1.421e-05,0.0,0 STARLINK-4095,1 53170U 22083AQ  23219.34007563 -.00001421  00000-0 -71228-4 0  9990,2 53170  53.2184  82.9113 0001305  72.5125 287.6010 15.08829796 59346,6917.912,95.438,540.679,538.874,0.0
53170.0,STARLINK-4095,PAYLOAD,2023-08-07 20:52:46,15.08837328,0.0001003,53.2168,80.5325,74.0147,286.0956,-8.6611e-06,-4.26e-06,0.0,0 STARLINK-4095,1 53170U 22083AQ  23219.86998815 -.00000426  00000-0 -86611-5 0  9993,2 53170  53.2168  80.5325 0001003  74.0147 286.0956 15.08837328 59424,6917.889,95.438,540.447,539.06,0.0
53170.0,STARLINK-4095,PAYLOAD,2023-08-08 17:32:47,15.08867007,0.0001046,53.2158,76.666,69.9478,290.1626,0.0010333,0.00016207,0.0,0 STARLINK-4095,1 53170U 22083AQ  23220.73110593  .00016207  00000-0  10333-2 0  9997,2 53170  53.2158  76.6660 0001046  69.9478 290.1626 15.08867007 59559,6917.798,95.436,540.386,538.939,0.0
53170.0,STARLINK-4095,PAYLOAD,2023-08-08 23:54:20,15.08846049,0.0001313,53.2158,75.4765,69.1304,290.9828,0.00013989,1.94e-05,0.0,0 STARLINK-4095,1 53170U 22083AQ  23220.99606949  .00001940  00000-0  13989-3 0  9999,2 53170  53.2158  75.4765 0001313  69.1304 290.9828 15.08846049 59598,6917.862,95.437,540.635,538.819,0.0
53170.0,STARLINK-4095,PAYLOAD,2023-08-09 23:45:06,15.08860658,0.0001003,53.2162,71.0158,80.4117,279.6989,0.0011016,0.00017297,0.0,0 STARLINK-4095,1 53170U 22083AQ  23221.98966407  .00017297  00000-0  11016-2 0  9997,2 53170  53.2162  71.0158 0001003  80.4117 279.6989 15.08860658 59746,6917.817,95.436,540.376,538.988,0.0
53170.0,STARLINK-4095,PAYLOAD,2023-08-10 14:03:35,15.0885115,0.0001304,53.2139,68.3363,96.7659,263.3481,0.00041516,6.328e-05,0.0,0 STARLINK-4095,1 53170U 22083AQ  23222.58582349  .00006328  00000-0  41516-3 0  9995,2 53170  53.2139  68.3363 0001304  96.7659 263.3481 15.08851150 59836,6917.846,95.437,540.613,538.809,0.0
53170.0,STARLINK-4095,PAYLOAD,2023-08-10 23:35:53,15.08847946,0.0001068,53.2153,66.5537,86.0565,274.0549,0.00018478,2.655e-05,0.0,0 STARLINK-4095,1 53170U 22083AQ  23222.98326272  .00002655  00000-0  18478-3 0  9990,2 53170  53.2153  66.5537 0001068  86.0565 274.0549 15.08847946 59898,6917.856,95.437,540.46,538.982,0.0
53170.0,STARLINK-4095,PAYLOAD,2023-08-11 18:40:31,15.08842755,0.0001196,53.2158,62.9836,105.9234,254.189,1.0472e-05,-1.21e-06,0.0,0 STARLINK-4095,1 53170U 22083AQ  23223.77814299 -.00000121  00000-0  10472-4 0  9993,2 53170  53.2158  62.9836 0001196 105.9234 254.1890 15.08842755 60018,6917.872,95.437,540.564,538.91,0.0
53170.0,STARLINK-4095,PAYLOAD,2023-08-12 20:06:41,15.08842963,0.0001662,53.2149,58.2281,90.89,269.2283,9.6733e-05,1.252e-05,0.0,0 STARLINK-4095,1 53170U 22083AQ  23224.83798340  .00001252  00000-0  96733-4 0  9998,2 53170  53.2149  58.2281 0001662  90.8900 269.2283 15.08842963 60171,6917.871,95.437,540.886,538.587,0.0
53170.0,STARLINK-4095,PAYLOAD,2023-08-13 05:39:01,15.08831361,0.0001201,53.2149,56.4457,88.1492,271.9638,4.4243e-06,-2.17e-06,0.0,0 STARLINK-4095,1 53170U 22083AQ  23225.23542954 -.00000217  00000-0  44243-5 0  9992,2 53170  53.2149  56.4457 0001201  88.1492 271.9638 15.08831361 60232,6917.907,95.438,540.603,538.941,0.0
53170.0,STARLINK-4095,PAYLOAD,2023-08-14 05:29:48,15.08843529,0.0001076,53.2175,51.9844,85.0071,275.1044,3.3551e-05,2.46e-06,0.0,0 STARLINK-4095,1 53170U 22083AQ  23226.22902818  .00000246  00000-0  33551-4 0  9991,2 53170  53.2175  51.9844 0001076  85.0071 275.1044 15.08843529 60382,6917.87,95.437,540.479,538.99,0.0
53170.0,STARLINK-4095,PAYLOAD,2023-08-15 18:03:40,15.08841639,0.0001285,53.2154,45.1435,78.5019,281.6118,0.00016306,2.308e-05,0.0,0 STARLINK-4095,1 53170U 22083AQ  23227.75254895  .00002308  00000-0  16306-3 0  9994,2 53170  53.2154  45.1435 0001285  78.5019 281.6118 15.08841639 60611,6917.875,95.437,540.629,538.851,0.0
53170.0,STARLINK-4095,PAYLOAD,2023-08-16 05:11:22,15.08834785,0.0001195,53.2161,43.063,77.2467,282.8658,0.00016515,2.341e-05,0.0,0 STARLINK-4095,1 53170U 22083AQ  23228.21623354  .00002341  00000-0  16515-3 0  9995,2 53170  53.2161  43.0630 0001195  77.2467 282.8658 15.08834785 60689,6917.896,95.438,540.588,538.935,0.0
53170.0,STARLINK-4095,PAYLOAD,2023-08-16 17:54:27,15.08846809,0.0001237,53.2175,40.6855,80.0781,280.0351,4.1053e-05,3.66e-06,0.0,0 STARLINK-4095,1 53170U 22083AQ  23228.74614635  .00000366  00000-0  41053-4 0  9996,2 53170  53.2175  40.6855 0001237  80.0781 280.0351 15.08846809 60763,6917.86,95.437,540.58,538.869,0.0
53170.0,STARLINK-4095,PAYLOAD,2023-08-17 11:23:42,15.08826309,0.0001174,53.2175,37.4131,89.8937,270.219,0.00027216,4.045e-05,0.0,0 STARLINK-4095,1 53170U 22083AQ  23229.47479260  .00004045  00000-0  27216-3 0  9992,2 53170  53.2175  37.4131 0001174  89.8937 270.2190 15.08826309 60871,6917.922,95.438,540.599,538.975,0.0
53170.0,STARLINK-4095,PAYLOAD,2023-08-17 17:45:14,15.08842706,0.0001238,53.2172,36.2241,86.1118,274.0016,0.00010433,1.373e-05,0.0,0 STARLINK-4095,1 53170U 22083AQ  23229.73974617  .00001373  00000-0  10433-3 0  9991,2 53170  53.2172  36.2241 0001238  86.1118 274.0016 15.08842706 60912,6917.872,95.437,540.594,538.881,0.0
53170.0,STARLINK-4095,PAYLOAD,2023-08-18 11:14:29,15.08826972,0.0001183,53.2173,32.9525,94.9755,265.1372,0.00017448,2.489e-05,0.0,0 STARLINK-4095,1 53170U 22083AQ  23230.46839421  .00002489  00000-0  17448-3 0  9998,2 53170  53.2173  32.9525 0001183  94.9755 265.1372 15.08826972 61020,6917.92,95.438,540.604,538.967,0.0
53170.0,STARLINK-4095,PAYLOAD,2023-08-18 20:46:47,15.088378,0.0001228,53.2172,31.1689,93.771,266.3423,3.3089e-05,2.39e-06,0.0,0 STARLINK-4095,1 53170U 22083AQ  23230.86583109  .00000239  00000-0  33089-4 0  9992,2 53170  53.2172  31.1689 0001228  93.7710 266.3423 15.08837800 61087,6917.887,95.438,540.602,538.903,0.0
53170.0,STARLINK-4095,PAYLOAD,2023-08-20 09:20:40,15.08836567,0.0001202,53.2165,24.3295,92.2271,267.8859,6.6914e-05,7.77e-06,0.0,0 STARLINK-4095,1 53170U 22083AQ  23232.38935415  .00000777  00000-0  66914-4 0  9992,2 53170  53.2165  24.3295 0001202  92.2271 267.8859 15.08836567 61318,6917.891,95.438,540.587,538.924,0.0
53170.0,STARLINK-4095,PAYLOAD,2023-08-21 10:46:50,15.08837119,0.0001248,53.219,19.5725,98.1231,261.9903,6.0388e-05,6.73e-06,0.0,0 STARLINK-4095,1 53170U 22083AQ  23233.44919633  .00000673  00000-0  60388-4 0  9998,2 53170  53.2190  19.5725 0001248  98.1231 261.9903 15.08837119 61477,6917.889,95.438,540.618,538.891,0.0
53170.0,STARLINK-4095,PAYLOAD,2023-08-22 10:37:38,15.0883692,0.0001267,53.2192,15.1123,87.8286,272.2851,-5.6418e-05,-1.186e-05,0.0,0 STARLINK-4095,1 53170U 22083AQ  23234.44280370 -.00001186  00000-0 -56418-4 0  9999,2 53170  53.2192  15.1123 0001267  87.8286 272.2851 15.08836920 61622,6917.89,95.438,540.631,538.878,0.0
53170.0,STARLINK-4095,PAYLOAD,2023-08-23 08:53:01,15.08841065,0.0001094,53.2185,10.9485,74.7584,285.3529,7.3494e-05,8.82e-06,0.0,0 STARLINK-4095,1 53170U 22083AQ  23235.37015865  .00000882  00000-0  73494-4 0  9990,2 53170  53.2185  10.9485 0001094  74.7584 285.3529 15.08841065 61760,6917.877,95.437,540.499,538.985,0.0
53170.0,STARLINK-4095,PAYLOAD,2023-08-24 08:43:48,15.08834415,0.0001553,53.221,6.4921,91.4924,268.6246,0.0002032,2.947e-05,0.0,0 STARLINK-4095,1 53170U 22083AQ  23236.36375737  .00002947  00000-0  20320-3 0  9990,2 53170  53.2210   6.4921 0001553  91.4924 268.6246 15.08834415 61286,6917.897,95.438,540.837,538.688,0.0
53170.0,STARLINK-4095,PAYLOAD,2023-08-25 13:20:45,15.08840995,0.0001391,53.2204,1.1379,102.4512,257.6635,3.6722e-05,2.97e-06,0.0,0 STARLINK-4095,1 53170U 22083AQ  23237.55607683  .00000297  00000-0  36722-4 0  9990,2 53170  53.2204   1.1379 0001391 102.4512 257.6635 15.08840995 61464,6917.877,95.437,540.705,538.78,0.0
53170.0,STARLINK-4095,PAYLOAD,2023-08-25 18:06:54,15.0884419,0.0001459,53.2176,0.2452,83.6401,276.4758,2.8257e-05,1.62e-06,0.0,0 STARLINK-4095,1 53170U 22083AQ  23237.75479553  .00000162  00000-0  28257-4 0  9990,2 53170  53.2176   0.2452 0001459  83.6401 276.4758 15.08844190 62126,6917.868,95.437,540.742,538.723,0.0
53170.0,STARLINK-4095,PAYLOAD,2023-08-26 10:00:46,15.08832455,0.0001493,53.2179,357.27,103.1181,256.9978,-9.7727e-06,-4.43e-06,0.0,0 STARLINK-4095,1 53170U 22083AQ  23238.41720328 -.00000443  00000-0 -97727-5 0  9996,2 53170  53.2179 357.2700 0001493 103.1181 256.9978 15.08832455 62220,6917.903,95.438,540.801,538.736,0.0
